*******************************************************************************
Ephemeris / WWW_USER Fri Mar  7 09:57:06 2025 Pasadena, USA      / Horizons    
*******************************************************************************
Target body name: 358P/PANSTARRS                  {source: JPL#33}
Center body name: Earth (399)                     {source: DE441}
Center-site name: Mauna Kea
*******************************************************************************
Start time      : A.D. 2018-Dec-24 03:59:00.0000 UT      
Stop  time      : A.D. 2018-Dec-24 16:43:00.0000 UT      
Step-size       : 1 minutes
*******************************************************************************
Target pole/equ : undefined
Target radii    : undefined                                                    
Center geodetic : 204.5278, 19.8260847, 4.21024   {E-lon(deg),Lat(deg),Alt(km)}
Center cylindric: 204.5278, 6006.35451, 2151.0229 {E-lon(deg),Dxy(km),Dz(km)}
Center pole/equ : ITRF93                          {East-longitude positive}
Center radii    : 6378.137, 6378.137, 6356.752 km {Equator_a, b, pole_c}       
Target primary  : Sun
Vis. interferer : MOON (R_eq= 1737.400) km        {source: DE441}
Rel. light bend : Sun                             {source: DE441}
Rel. lght bnd GM: 1.3271E+11 km^3/s^2                                          
Small-body perts: Yes                             {source: SB441-N16}
Atmos refraction: NO (AIRLESS)
RA format       : HMS
Time format     : CAL 
Calendar mode   : Mixed Julian/Gregorian
RTS-only print  : NO       
EOP file        : eop.250306.p250602                                           
EOP coverage    : DATA-BASED 1962-JAN-20 TO 2025-MAR-06. PREDICTS-> 2025-JUN-01
Units conversion: 1 au= 149597870.700 km, c= 299792.458 km/s, 1 day= 86400.0 s 
Table cut-offs 1: Elevation (-90.0deg=NO ),Airmass (>38.000=NO), Daylight (YES)
Table cut-offs 2: Solar elongation (  0.0,180.0=NO ),Local Hour Angle( 0.0=NO )
Table cut-offs 3: RA/DEC angular rate (     0.0=NO )                           
*******************************************************************************
Initial IAU76/J2000 heliocentric ecliptic osculating elements (au, days, deg.):
  EPOCH=  2459793.5 ! 2022-Aug-02.0000000 (TDB)    RMSW= n.a.                  
   EC= .2388922136090974   QR= 2.394903345037887   TP= 2460259.6862889272      
   OM= 85.70246509974154   W= 299.7728624007243    IN= 11.06025031481611       
  Equivalent ICRF heliocentric cartesian coordinates (au, au/d):
   X= 3.243054425204740E-01  Y=-2.897679241187805E+00  Z=-1.376383147061824E+00
  VX= 8.746409534656921E-03 VY= 3.598394346577952E-03 VZ=-2.469697424538527E-04
Comet physical (GM= km^3/s^2; RAD= km):                                        
   GM= n.a.                RAD= n.a.                                           
   M1=  7.8      M2=  17.2     k1=  30.    k2=  5.      PHCOF=  .030           
Comet non-gravitational force model (AMRAT=m^2/kg;A1-A3=au/d^2;DT=days;R0=au): 
   AMRAT=  0.                                      DT=  0.                     
   A1= 0.                  A2= -2.303385920823E-10 A3= 0.                      
 Standard model:                                                               
   ALN=  .1112620426   NK=  4.6142   NM=  2.15     NN=  5.093    R0=  2.808    
*******************************************************************************
 Date__(UT)__HR:MN     R.A._________(ICRF)_________DEC
******************************************************
$$SOE
 2018-Dec-24 03:59 C   06 25 00.500459 +25 55 51.20008
 2018-Dec-24 04:00 C   06 25 00.459788 +25 55 51.40063
 2018-Dec-24 04:01 C   06 25 00.419111 +25 55 51.60118
 2018-Dec-24 04:02 C   06 25 00.378427 +25 55 51.80174
 2018-Dec-24 04:03 C   06 25 00.337736 +25 55 52.00230
 2018-Dec-24 04:04 C   06 25 00.297039 +25 55 52.20287
 2018-Dec-24 04:05 C   06 25 00.256334 +25 55 52.40344
 2018-Dec-24 04:06 C   06 25 00.215623 +25 55 52.60401
 2018-Dec-24 04:07 C   06 25 00.174906 +25 55 52.80459
 2018-Dec-24 04:08 C   06 25 00.134182 +25 55 53.00517
 2018-Dec-24 04:09 C   06 25 00.093451 +25 55 53.20575
 2018-Dec-24 04:10 C   06 25 00.052713 +25 55 53.40634
 2018-Dec-24 04:11 C   06 25 00.011968 +25 55 53.60693
 2018-Dec-24 04:12 C   06 24 59.971217 +25 55 53.80752
 2018-Dec-24 04:13 C   06 24 59.930459 +25 55 54.00812
 2018-Dec-24 04:14 N   06 24 59.889694 +25 55 54.20872
 2018-Dec-24 04:15 N   06 24 59.848923 +25 55 54.40932
 2018-Dec-24 04:16 N   06 24 59.808145 +25 55 54.60992
 2018-Dec-24 04:17 N   06 24 59.767360 +25 55 54.81052
 2018-Dec-24 04:18 N   06 24 59.726568 +25 55 55.01113
 2018-Dec-24 04:19 N   06 24 59.685770 +25 55 55.21174
 2018-Dec-24 04:20 N   06 24 59.644965 +25 55 55.41234
 2018-Dec-24 04:21 N   06 24 59.604153 +25 55 55.61295
 2018-Dec-24 04:22 N   06 24 59.563334 +25 55 55.81357
 2018-Dec-24 04:23 N   06 24 59.522509 +25 55 56.01418
 2018-Dec-24 04:24 N   06 24 59.481677 +25 55 56.21479
 2018-Dec-24 04:25 N   06 24 59.440838 +25 55 56.41540
 2018-Dec-24 04:26 N   06 24 59.399992 +25 55 56.61602
 2018-Dec-24 04:27 N   06 24 59.359140 +25 55 56.81663
 2018-Dec-24 04:28 N   06 24 59.318281 +25 55 57.01724
 2018-Dec-24 04:29 N   06 24 59.277415 +25 55 57.21786
 2018-Dec-24 04:30 N   06 24 59.236542 +25 55 57.41847
 2018-Dec-24 04:31 N   06 24 59.195663 +25 55 57.61908
 2018-Dec-24 04:32 N   06 24 59.154776 +25 55 57.81969
 2018-Dec-24 04:33 N   06 24 59.113883 +25 55 58.02030
 2018-Dec-24 04:34 N   06 24 59.072983 +25 55 58.22091
 2018-Dec-24 04:35 N   06 24 59.032077 +25 55 58.42152
 2018-Dec-24 04:36 N   06 24 58.991164 +25 55 58.62213
 2018-Dec-24 04:37 N   06 24 58.950243 +25 55 58.82274
 2018-Dec-24 04:38 N   06 24 58.909317 +25 55 59.02334
 2018-Dec-24 04:39 N   06 24 58.868383 +25 55 59.22394
 2018-Dec-24 04:40 N   06 24 58.827443 +25 55 59.42454
 2018-Dec-24 04:41 A   06 24 58.786495 +25 55 59.62514
 2018-Dec-24 04:42 A   06 24 58.745541 +25 55 59.82574
 2018-Dec-24 04:43 A   06 24 58.704581 +25 56 00.02633
 2018-Dec-24 04:44 A   06 24 58.663613 +25 56 00.22692
 2018-Dec-24 04:45 A   06 24 58.622639 +25 56 00.42750
 2018-Dec-24 04:46 A   06 24 58.581658 +25 56 00.62809
 2018-Dec-24 04:47 A   06 24 58.540670 +25 56 00.82867
 2018-Dec-24 04:48 A   06 24 58.499676 +25 56 01.02925
 2018-Dec-24 04:49 A   06 24 58.458674 +25 56 01.22982
 2018-Dec-24 04:50 A   06 24 58.417666 +25 56 01.43039
 2018-Dec-24 04:51 A   06 24 58.376651 +25 56 01.63096
 2018-Dec-24 04:52 A   06 24 58.335630 +25 56 01.83152
 2018-Dec-24 04:53 A   06 24 58.294602 +25 56 02.03207
 2018-Dec-24 04:54 A   06 24 58.253566 +25 56 02.23263
 2018-Dec-24 04:55 A   06 24 58.212525 +25 56 02.43318
 2018-Dec-24 04:56 A   06 24 58.171476 +25 56 02.63372
 2018-Dec-24 04:57 A   06 24 58.130421 +25 56 02.83426
 2018-Dec-24 04:58 A   06 24 58.089359 +25 56 03.03479
 2018-Dec-24 04:59 A   06 24 58.048290 +25 56 03.23532
 2018-Dec-24 05:00 A   06 24 58.007214 +25 56 03.43584
 2018-Dec-24 05:01 A   06 24 57.966132 +25 56 03.63636
 2018-Dec-24 05:02 A   06 24 57.925043 +25 56 03.83687
 2018-Dec-24 05:03 A   06 24 57.883947 +25 56 04.03737
 2018-Dec-24 05:04 A   06 24 57.842845 +25 56 04.23787
 2018-Dec-24 05:05 A   06 24 57.801735 +25 56 04.43836
 2018-Dec-24 05:06 A   06 24 57.760620 +25 56 04.63885
 2018-Dec-24 05:07 A   06 24 57.719497 +25 56 04.83933
 2018-Dec-24 05:08  m  06 24 57.678368 +25 56 05.03980
 2018-Dec-24 05:09  m  06 24 57.637231 +25 56 05.24026
 2018-Dec-24 05:10  m  06 24 57.596089 +25 56 05.44072
 2018-Dec-24 05:11  m  06 24 57.554939 +25 56 05.64117
 2018-Dec-24 05:12  m  06 24 57.513783 +25 56 05.84161
 2018-Dec-24 05:13  m  06 24 57.472620 +25 56 06.04205
 2018-Dec-24 05:14  m  06 24 57.431451 +25 56 06.24248
 2018-Dec-24 05:15  m  06 24 57.390274 +25 56 06.44289
 2018-Dec-24 05:16  m  06 24 57.349092 +25 56 06.64330
 2018-Dec-24 05:17  m  06 24 57.307902 +25 56 06.84371
 2018-Dec-24 05:18  m  06 24 57.266706 +25 56 07.04410
 2018-Dec-24 05:19  m  06 24 57.225503 +25 56 07.24448
 2018-Dec-24 05:20  m  06 24 57.184293 +25 56 07.44486
 2018-Dec-24 05:21  m  06 24 57.143077 +25 56 07.64523
 2018-Dec-24 05:22  m  06 24 57.101854 +25 56 07.84558
 2018-Dec-24 05:23  m  06 24 57.060625 +25 56 08.04593
 2018-Dec-24 05:24  m  06 24 57.019389 +25 56 08.24627
 2018-Dec-24 05:25  m  06 24 56.978146 +25 56 08.44660
 2018-Dec-24 05:26  m  06 24 56.936896 +25 56 08.64692
 2018-Dec-24 05:27  m  06 24 56.895640 +25 56 08.84723
 2018-Dec-24 05:28  m  06 24 56.854378 +25 56 09.04752
 2018-Dec-24 05:29  m  06 24 56.813109 +25 56 09.24781
 2018-Dec-24 05:30  m  06 24 56.771833 +25 56 09.44809
 2018-Dec-24 05:31  m  06 24 56.730550 +25 56 09.64835
 2018-Dec-24 05:32  m  06 24 56.689261 +25 56 09.84861
 2018-Dec-24 05:33  m  06 24 56.647966 +25 56 10.04885
 2018-Dec-24 05:34  m  06 24 56.606664 +25 56 10.24909
 2018-Dec-24 05:35  m  06 24 56.565355 +25 56 10.44931
 2018-Dec-24 05:36  m  06 24 56.524040 +25 56 10.64952
 2018-Dec-24 05:37  m  06 24 56.482718 +25 56 10.84971
 2018-Dec-24 05:38  m  06 24 56.441390 +25 56 11.04990
 2018-Dec-24 05:39  m  06 24 56.400055 +25 56 11.25007
 2018-Dec-24 05:40  m  06 24 56.358713 +25 56 11.45023
 2018-Dec-24 05:41  m  06 24 56.317365 +25 56 11.65038
 2018-Dec-24 05:42  m  06 24 56.276011 +25 56 11.85052
 2018-Dec-24 05:43  m  06 24 56.234650 +25 56 12.05064
 2018-Dec-24 05:44  m  06 24 56.193283 +25 56 12.25075
 2018-Dec-24 05:45  m  06 24 56.151909 +25 56 12.45085
 2018-Dec-24 05:46  m  06 24 56.110528 +25 56 12.65093
 2018-Dec-24 05:47  m  06 24 56.069142 +25 56 12.85100
 2018-Dec-24 05:48  m  06 24 56.027748 +25 56 13.05106
 2018-Dec-24 05:49  m  06 24 55.986348 +25 56 13.25110
 2018-Dec-24 05:50  m  06 24 55.944942 +25 56 13.45113
 2018-Dec-24 05:51  m  06 24 55.903530 +25 56 13.65115
 2018-Dec-24 05:52  m  06 24 55.862111 +25 56 13.85115
 2018-Dec-24 05:53  m  06 24 55.820685 +25 56 14.05113
 2018-Dec-24 05:54  m  06 24 55.779253 +25 56 14.25110
 2018-Dec-24 05:55  m  06 24 55.737815 +25 56 14.45106
